[ {"name": "STARLINK-6067", "line1": "1 56816U 23078BB  26169.46552138 -.00000037  00000+0  46637-5 0  9995", "line2": "2 56816  70.0001  70.1679 0002910 265.9576  94.1250 14.98329788168272"}, {"name": "STARLINK-6028", "line1": "1 56818U 23078BD  26169.49078803  .00001986  00000+0  17412-3 0  9992", "line2": "2 56818  70.0015  90.1240 0002893 269.9236  90.1592 14.98336210168477"}, {"name": "STARLINK-30119", "line1": "1 56823U 23079A   26167.99905201  .00000723  00000+0  35825-4 0  9990", "line2": "2 56823  43.0087 266.4385 0002288 273.3868  86.6722 15.27581356168503"}, {"name": "STARLINK-30120", "line1": "1 56824U 23079B   26169.51707410  .00000817  00000+0  39216-4 0  9995", "line2": "2 56824  43.0000 258.0538 0001516 274.3350  85.7328 15.27580702168625"}, {"name": "STARLINK-30084", "line1": "1 56825U 23079C   26169.52207135  .00000581  00000+0  30651-4 0  9998", "line2": "2 56825  43.0035 257.2393 0001119 269.6312  90.4412 15.27579641168311"}, {"name": "STARLINK-30114", "line1": "1 56826U 23079D   26169.29905177 -.00001044  00000+0 -28445-4 0  9999", "line2": "2 56826  43.0022 258.8066 0001242 269.1663  90.9046 15.27568261168586"}, {"name": "STARLINK-30151", "line1": "1 56827U 23079E   26169.55162458  .00000050  00000+0  11337-4 0  9992", "line2": "2 56827  43.0023 257.4410 0001167 279.4771  80.5948 15.27574293168315"}, {"name": "STARLINK-30152", "line1": "1 56828U 23079F   26169.55547947  .00000467  00000+0  26476-4 0  9995", "line2": "2 56828  43.0017 257.4805 0000682 272.5544  87.5229 15.27579009168319"}, {"name": "STARLINK-30128", "line1": "1 56832U 23079K   26169.53165946 -.00000146  00000+0  42331-5 0  9997", "line2": "2 56832  43.0032 231.7292 0001365 276.0803  83.9893 15.27573127162206"}, {"name": "STARLINK-30131", "line1": "1 56833U 23079L   26167.92619293  .00012679  00000+0  51936-3 0  9990", "line2": "2 56833  42.9988 244.7764 0002652 340.5489  19.5260 15.24211740168318"}, {"name": "STARLINK-30069", "line1": "1 56834U 23079M   26169.29057288  .00000963  00000+0  44538-4 0  9997", "line2": "2 56834  43.0043 255.5207 0001733 272.8160  87.2493 15.27571635168312"}, {"name": "STARLINK-30144", "line1": "1 56835U 23079N   26169.27380450  .00060143  00000+0  14904-2 0  9994", "line2": "2 56835  42.9905 251.0107 0013295  13.3522 346.7683 15.39480287168368"}, {"name": "STARLINK-30142", "line1": "1 56836U 23079P   26167.99440519  .00000555  00000+0  29700-4 0  9998", "line2": "2 56836  43.0057 262.9929 0001819 273.6995  86.3649 15.27581086168114"}, {"name": "STARLINK-30133", "line1": "1 56837U 23079Q   26169.32462955  .00000660  00000+0  33503-4 0  9999", "line2": "2 56837  43.0022 258.3184 0001510 264.4859  95.5821 15.27577358168283"}, {"name": "STARLINK-30123", "line1": "1 56838U 23079R   26169.36830387  .00000106  00000+0  13382-4 0  9990", "line2": "2 56838  43.0005 185.3606 0001270 270.8224  89.2482 15.27578116169145"}, {"name": "STARLINK-30076", "line1": "1 56839U 23079S   26169.55034247 -.00000594  00000+0 -12053-4 0  9990", "line2": "2 56839  43.0031 257.4258 0001485 267.9338  92.1344 15.27569444168312"}, {"name": "STARLINK-30073", "line1": "1 56840U 23079T   26169.75002315  .00023282  00000+0  85316-3 0  9993", "line2": "2 56840  43.0004  81.6409 0001455 262.2387 308.1331 15.27569734  5833"}, {"name": "STARLINK-30078", "line1": "1 56841U 23079U   26169.48437449  .00007795  00000+0  29279-3 0  9991", "line2": "2 56841  42.9989 210.1290 0001495 286.2789  73.7899 15.27547230168861"}, {"name": "STARLINK-30135", "line1": "1 56842U 23079V   26169.30291858 -.00000656  00000+0 -14302-4 0  9998", "line2": "2 56842  43.0018 258.9288 0001376 284.9825  75.0874 15.27568836168276"}, {"name": "STARLINK-30137", "line1": "1 56843U 23079W   26169.54004428 -.00000022  00000+0  87380-5 0  9993", "line2": "2 56843  43.0067 257.2661 0002267 279.8313  80.2283 15.27576565168318"}, {"name": "STARLINK-30136", "line1": "1 56844U 23079X   26169.55417360 -.00001293  00000+0 -37469-4 0  9992", "line2": "2 56844  43.0046 257.3639 0000486 271.4297  88.6499 15.27576726168312"}, {"name": "STARLINK-6206", "line1": "1 56876U 23083A   26169.48770375 -.00000446  00000+0 -66823-5 0  9998", "line2": "2 56876  43.0011 236.1607 0000987 274.4857  85.5882 15.27578921167040"}, {"name": "STARLINK-6209", "line1": "1 56877U 23083B   26168.66066304 -.00000338  00000+0 -27506-5 0  9993", "line2": "2 56877  43.0017 240.2750 0002161 290.3680  69.6940 15.27576422166927"}, {"name": "STARLINK-6182", "line1": "1 56878U 23083C   26169.49413383 -.00000433  00000+0 -62102-5 0  9996", "line2": "2 56878  43.0040 236.2117 0000734 303.4648  56.6133 15.27575947167045"}, {"name": "STARLINK-5707", "line1": "1 56879U 23083D   26169.49797914  .00000403  00000+0  24175-4 0  9994", "line2": "2 56879  43.0029 236.2343 0001449 290.6120  69.4577 15.27579824167042"}, {"name": "STARLINK-6177", "line1": "1 56880U 23083E   26169.46971638 -.00000171  00000+0  33179-5 0  9998", "line2": "2 56880  42.9996 236.0238 0001107 267.4974  92.5751 15.27574835167044"}, {"name": "STARLINK-5853", "line1": "1 56881U 23083F   26168.65181045  .00000672  00000+0  33964-4 0  9990", "line2": "2 56881  43.0028 241.0623 0001616 286.0702  73.9972 15.27579301166914"}, {"name": "STARLINK-6175", "line1": "1 56882U 23083G   26169.52867603  .00000214  00000+0  17288-4 0  9992", "line2": "2 56882  43.0007 235.6062 0001355 264.7033  95.3664 15.27578070167052"}, {"name": "STARLINK-6171", "line1": "1 56883U 23083H   26169.45557860  .00000810  00000+0  38955-4 0  9992", "line2": "2 56883  43.0055 235.9202 0001770 272.2895  87.7754 15.27581760167040"}, {"name": "STARLINK-5515", "line1": "1 56884U 23083J   26168.65809456 -.00000160  00000+0  37070-5 0  9992", "line2": "2 56884  43.0044 240.2496 0001762 260.0660  99.9992 15.27575669166925"}]