OBJECT_NAME,OBJECT_ID,EPOCH,MEAN_MOTION,ECCENTRICITY,INCLINATION,RA_OF_ASC_NODE,ARG_OF_PERICENTER,MEAN_ANOMALY,EPHEMERIS_TYPE,CLASSIFICATION_TYPE,NORAD_CAT_ID,ELEMENT_SET_NO,REV_AT_EPOCH,BSTAR,MEAN_MOTION_DOT,MEAN_MOTION_DDOT
STARLINK-6067,2023-078BB,2026-06-18T11:10:21.047232,14.98329788,.000291,70.0001,70.1679,265.9576,94.1250,0,U,56816,999,16827,.46637E-5,-.37E-6,0
STARLINK-6028,2023-078BD,2026-06-18T11:46:44.085792,14.98336210,.0002893,70.0015,90.1240,269.9236,90.1592,0,U,56818,999,16847,.17412E-3,.1986E-4,0
STARLINK-30119,2023-079A,2026-06-16T23:58:38.093664,15.27581356,.00022881,43.0087,266.4385,273.3868,86.6722,0,U,56823,999,16850,.35825337E-4,.723E-5,0
STARLINK-30120,2023-079B,2026-06-18T12:24:35.202240,15.27580702,.0001516,43.0000,258.0538,274.3350,85.7328,0,U,56824,999,16862,.39216E-4,.817E-5,0
STARLINK-30084,2023-079C,2026-06-18T12:31:46.964640,15.27579641,.0001119,43.0035,257.2393,269.6312,90.4412,0,U,56825,999,16831,.30651E-4,.581E-5,0
STARLINK-30114,2023-079D,2026-06-18T07:10:38.072928,15.27568261,.0001242,43.0022,258.8066,269.1663,90.9046,0,U,56826,999,16858,-.28445E-4,-.1044E-4,0
STARLINK-30151,2023-079E,2026-06-18T13:14:20.363712,15.27574293,.0001167,43.0023,257.4410,279.4771,80.5948,0,U,56827,999,16831,.11337E-4,.5E-6,0
STARLINK-30152,2023-079F,2026-06-18T13:19:53.426208,15.27579009,.0000682,43.0017,257.4805,272.5544,87.5229,0,U,56828,999,16831,.26476E-4,.467E-5,0
STARLINK-30128,2023-079K,2026-06-18T12:45:35.377344,15.27573127,.0001365,43.0032,231.7292,276.0803,83.9893,0,U,56832,999,16220,.42331E-5,-.146E-5,0
STARLINK-30131,2023-079L,2026-06-16T22:13:43.069152,15.24211740,.00026525,42.9988,244.7764,340.5489,19.5260,0,U,56833,999,16831,.51935705E-3,.12679E-3,0
STARLINK-30069,2023-079M,2026-06-18T06:58:25.496832,15.27571635,.0001733,43.0043,255.5207,272.8160,87.2493,0,U,56834,999,16831,.44538E-4,.963E-5,0
STARLINK-30144,2023-079N,2026-06-18T06:34:16.708800,15.39480287,.0013295,42.9905,251.0107,13.3522,346.7683,0,U,56835,999,16836,.14904E-2,.60143E-3,0
STARLINK-30142,2023-079P,2026-06-16T23:51:56.608416,15.27581086,.00018197,43.0057,262.9929,273.6995,86.3649,0,U,56836,999,16811,.29700251E-4,.555E-5,0
STARLINK-30133,2023-079Q,2026-06-18T07:47:27.993120,15.27577358,.000151,43.0022,258.3184,264.4859,95.5821,0,U,56837,999,16828,.33503E-4,.66E-5,0
STARLINK-30123,2023-079R,2026-06-18T08:50:21.454368,15.27578116,.000127,43.0005,185.3606,270.8224,89.2482,0,U,56838,999,16914,.13382E-4,.106E-5,0
STARLINK-30076,2023-079S,2026-06-18T13:12:29.589408,15.27569444,.0001485,43.0031,257.4258,267.9338,92.1344,0,U,56839,999,16831,-.12053E-4,-.594E-5,0
STARLINK-30073,2023-079T,2026-06-18T18:00:02.000160,15.27569734,.0001455,43.0004,81.6409,262.2387,308.1331,0,U,56840,999,583,.85316E-3,.23282E-3,0
STARLINK-30078,2023-079U,2026-06-18T11:37:29.955936,15.27547230,.0001495,42.9989,210.1290,286.2789,73.7899,0,U,56841,999,16886,.29279E-3,.7795E-4,0
STARLINK-30135,2023-079V,2026-06-18T07:16:12.165312,15.27568836,.0001376,43.0018,258.9288,284.9825,75.0874,0,U,56842,999,16827,-.14302E-4,-.656E-5,0
STARLINK-30137,2023-079W,2026-06-18T12:57:39.825792,15.27576565,.0002267,43.0067,257.2661,279.8313,80.2283,0,U,56843,999,16831,.8738E-5,-.22E-6,0
STARLINK-30136,2023-079X,2026-06-18T13:18:00.599040,15.27576726,.0000486,43.0046,257.3639,271.4297,88.6499,0,U,56844,999,16831,-.37469E-4,-.1293E-4,0
STARLINK-6206,2023-083A,2026-06-18T11:42:17.604000,15.27578921,.0000987,43.0011,236.1607,274.4857,85.5882,0,U,56876,999,16704,-.66823E-5,-.446E-5,0
STARLINK-6209,2023-083B,2026-06-17T15:51:21.286656,15.27576422,.00021614,43.0017,240.2750,290.3680,69.6940,0,U,56877,999,16692,-.275062E-5,-.338E-5,0
STARLINK-6182,2023-083C,2026-06-18T11:51:33.162912,15.27575947,.0000734,43.0040,236.2117,303.4648,56.6133,0,U,56878,999,16704,-.62102E-5,-.433E-5,0
STARLINK-5707,2023-083D,2026-06-18T11:57:05.397696,15.27579824,.0001449,43.0029,236.2343,290.6120,69.4577,0,U,56879,999,16704,.24175E-4,.403E-5,0
STARLINK-6177,2023-083E,2026-06-18T11:16:23.495232,15.27574835,.0001107,42.9996,236.0238,267.4974,92.5751,0,U,56880,999,16704,.33179E-5,-.171E-5,0
STARLINK-5853,2023-083F,2026-06-17T15:38:36.422880,15.27579301,.0001616,43.0028,241.0623,286.0702,73.9972,0,U,56881,999,16691,.33964367E-4,.672E-5,0
STARLINK-6175,2023-083G,2026-06-18T12:41:17.608992,15.27578070,.0001355,43.0007,235.6062,264.7033,95.3664,0,U,56882,999,16705,.17288E-4,.214E-5,0
STARLINK-6171,2023-083H,2026-06-18T10:56:01.991040,15.27581760,.000177,43.0055,235.9202,272.2895,87.7754,0,U,56883,999,16704,.38955E-4,.81E-5,0
STARLINK-5515,2023-083J,2026-06-17T15:47:39.369984,15.27575669,.0001762,43.0044,240.2496,260.0660,99.9992,0,U,56884,999,16692,.3706974E-5,-.16E-5,0
